start=new Date('2022-06-10T00:00:00.000Z').valueOf();
sats=[{"DECAY_DATE":null,"PERIAPSIS":"546.282","RA_OF_ASC_NODE":"172.0095","RCS_SIZE":"LARGE","GP_ID":"205777931","COUNTRY_CODE":"US","MEAN_MOTION":"15.06388381","OBJECT_TYPE":"PAYLOAD","PERIOD":"95.593","ELEMENT_SET_NO":"999","REF_FRAME":"TEME","NORAD_CAT_ID":"45381","TLE_LINE2":"2 45381  53.0552 172.0095 0001396  77.0675 283.0470 15.06388381123674","REV_AT_EPOCH":"12367","INCLINATION":"53.0552","LAUNCH_DATE":"2020-03-18","ARG_OF_PERICENTER":"77.0675","EPHEMERIS_TYPE":"0","BSTAR":"0.00004695900000","OBJECT_ID":"2020-019X","MEAN_MOTION_DDOT":"0.0000000000000","MEAN_MOTION_DOT":"0.00000418","FILE":"3489040","MEAN_ELEMENT_THEORY":"SGP4","CLASSIFICATION_TYPE":"U","TLE_LINE1":"1 45381U 20019X   22160.75447677  .00000418  00000-0  46959-4 0  9991","TIME_SYSTEM":"UTC","ECCENTRICITY":"0.00013960","SITE":"AFETR","EPOCH":"2022-06-09T18:06:26.792928","MEAN_ANOMALY":"283.0470","APOAPSIS":"548.216","OBJECT_NAME":"STARLINK-1258","CENTER_NAME":"EARTH","SEMIMAJOR_AXIS":"6925.384"},{"ARG_OF_PERICENTER":"63.2055","EPHEMERIS_TYPE":"0","BSTAR":"0.00006660900000","OBJECT_ID":"2020-019Y","LAUNCH_DATE":"2020-03-18","REV_AT_EPOCH":"12344","INCLINATION":"53.0527","REF_FRAME":"TEME","NORAD_CAT_ID":"45382","TLE_LINE2":"2 45382  53.0527 173.5929 0001564  63.2055 296.9093 15.06402236123440","ELEMENT_SET_NO":"999","OBJECT_TYPE":"PAYLOAD","PERIOD":"95.592","RCS_SIZE":"LARGE","GP_ID":"205756069","COUNTRY_CODE":"US","MEAN_MOTION":"15.06402236","RA_OF_ASC_NODE":"173.5929","PERIAPSIS":"546.124","DECAY_DATE":null,"SEMIMAJOR_AXIS":"6925.342","OBJECT_NAME":"STARLINK-1264","CENTER_NAME":"EARTH","APOAPSIS":"548.290","MEAN_ANOMALY":"296.9093","EPOCH":"2022-06-09T09:35:31.103520","ECCENTRICITY":"0.00015640","SITE":"AFETR","TIME_SYSTEM":"UTC","TLE_LINE1":"1 45382U 20019Y   22160.39966555  .00000711  00000-0  66609-4 0  9993","CLASSIFICATION_TYPE":"U","FILE":"3488878","MEAN_ELEMENT_THEORY":"SGP4","MEAN_MOTION_DOT":"0.00000711","MEAN_MOTION_DDOT":"0.0000000000000"},{"SEMIMAJOR_AXIS":"6925.364","OBJECT_NAME":"STARLINK-1266","CENTER_NAME":"EARTH","MEAN_ANOMALY":"288.2595","APOAPSIS":"548.298","EPOCH":"2022-06-09T17:55:49.408032","ECCENTRICITY":"0.00015430","SITE":"AFETR","TIME_SYSTEM":"UTC","TLE_LINE1":"1 45383U 20019Z   22160.74709963 -.00001001  00000-0 -48318-4 0  9993","CLASSIFICATION_TYPE":"U","MEAN_ELEMENT_THEORY":"SGP4","FILE":"3489040","MEAN_MOTION_DOT":"-0.00001001","MEAN_MOTION_DDOT":"0.0000000000000","ARG_OF_PERICENTER":"71.8562","BSTAR":"-0.00004831800000","EPHEMERIS_TYPE":"0","OBJECT_ID":"2020-019Z","LAUNCH_DATE":"2020-03-18","REV_AT_EPOCH":"12367","INCLINATION":"53.0550","REF_FRAME":"TEME","NORAD_CAT_ID":"45383","TLE_LINE2":"2 45383  53.0550 172.0506 0001543  71.8562 288.2595 15.06394832123675","ELEMENT_SET_NO":"999","OBJECT_TYPE":"PAYLOAD","PERIOD":"95.592","RCS_SIZE":"LARGE","GP_ID":"205778933","MEAN_MOTION":"15.06394832","COUNTRY_CODE":"US","RA_OF_ASC_NODE":"172.0506","DECAY_DATE":null,"PERIAPSIS":"546.161"},{"APOAPSIS":"548.307","MEAN_ANOMALY":"298.4389","OBJECT_NAME":"STARLINK-1267","CENTER_NAME":"EARTH","SEMIMAJOR_AXIS":"6925.347","TIME_SYSTEM":"UTC","ECCENTRICITY":"0.00015810","SITE":"AFETR","EPOCH":"2022-06-09T17:38:32.174304","FILE":"3488880","MEAN_ELEMENT_THEORY":"SGP4","CLASSIFICATION_TYPE":"U","TLE_LINE1":"1 45384U 20019AA  22160.73509461  .00000359  00000-0  43024-4 0  9996","MEAN_MOTION_DDOT":"0.0000000000000","MEAN_MOTION_DOT":"0.00000359","LAUNCH_DATE":"2020-03-18","ARG_OF_PERICENTER":"61.6759","OBJECT_ID":"2020-019AA","BSTAR":"0.00004302400000","EPHEMERIS_TYPE":"0","OBJECT_TYPE":"PAYLOAD","PERIOD":"95.592","ELEMENT_SET_NO":"999","NORAD_CAT_ID":"45384","REF_FRAME":"TEME","TLE_LINE2":"2 45384  53.0550 172.0917 0001581  61.6759 298.4389 15.06400505123689","REV_AT_EPOCH":"12368","INCLINATION":"53.0550","PERIAPSIS":"546.117","DECAY_DATE":null,"RA_OF_ASC_NODE":"172.0917","RCS_SIZE":"LARGE","GP_ID":"205755601","MEAN_MOTION":"15.06400505","COUNTRY_CODE":"US"},{"RA_OF_ASC_NODE":"173.5759","PERIAPSIS":"546.192","DECAY_DATE":null,"GP_ID":"205755631","COUNTRY_CODE":"US","MEAN_MOTION":"15.06396774","RCS_SIZE":"LARGE","ELEMENT_SET_NO":"999","PERIOD":"95.592","OBJECT_TYPE":"PAYLOAD","INCLINATION":"53.0543","REV_AT_EPOCH":"12363","TLE_LINE2":"2 45386  53.0543 173.5759 0001489  61.7762 298.3377 15.06396774123638","NORAD_CAT_ID":"45386","REF_FRAME":"TEME","LAUNCH_DATE":"2020-03-18","BSTAR":"-0.00004487800000","EPHEMERIS_TYPE":"0","OBJECT_ID":"2020-019AC","ARG_OF_PERICENTER":"61.7762","MEAN_MOTION_DDOT":"0.0000000000000","MEAN_MOTION_DOT":"-0.00000950","MEAN_ELEMENT_THEORY":"SGP4","FILE":"3488882","TLE_LINE1":"1 45386U 20019AC  22160.40799155 -.00000950  00000-0 -44878-4 0  9990","CLASSIFICATION_TYPE":"U","TIME_SYSTEM":"UTC","EPOCH":"2022-06-09T09:47:30.469920","SITE":"AFETR","ECCENTRICITY":"0.00014890","CENTER_NAME":"EARTH","OBJECT_NAME":"STARLINK-1272","APOAPSIS":"548.255","MEAN_ANOMALY":"298.3377","SEMIMAJOR_AXIS":"6925.358"},{"SEMIMAJOR_AXIS":"6925.371","OBJECT_NAME":"STARLINK-1274","CENTER_NAME":"EARTH","MEAN_ANOMALY":"296.5956","APOAPSIS":"548.364","EPOCH":"2022-06-09T07:08:16.587744","ECCENTRICITY":"0.00016300","SITE":"AFETR","TIME_SYSTEM":"UTC","TLE_LINE1":"1 45387U 20019AD  22160.29741421 -.00001267  00000-0 -66157-4 0  9997","CLASSIFICATION_TYPE":"U","MEAN_ELEMENT_THEORY":"SGP4","FILE":"3488881","MEAN_MOTION_DOT":"-0.00001267","MEAN_MOTION_DDOT":"0.0000000000000","ARG_OF_PERICENTER":"63.5200","EPHEMERIS_TYPE":"0","BSTAR":"-0.00006615700000","OBJECT_ID":"2020-019AD","LAUNCH_DATE":"2020-03-18","REV_AT_EPOCH":"12358","INCLINATION":"53.0539","REF_FRAME":"TEME","NORAD_CAT_ID":"45387","TLE_LINE2":"2 45387  53.0539 174.0584 0001630  63.5200 296.5956 15.06392813123588","ELEMENT_SET_NO":"999","OBJECT_TYPE":"PAYLOAD","PERIOD":"95.593","RCS_SIZE":"LARGE","COUNTRY_CODE":"US","GP_ID":"205756121","MEAN_MOTION":"15.06392813","RA_OF_ASC_NODE":"174.0584","PERIAPSIS":"546.107","DECAY_DATE":null},{"DECAY_DATE":null,"PERIAPSIS":"546.133","RA_OF_ASC_NODE":"193.3026","RCS_SIZE":"LARGE","GP_ID":"205755645","COUNTRY_CODE":"US","MEAN_MOTION":"15.06394725","OBJECT_TYPE":"PAYLOAD","PERIOD":"95.592","ELEMENT_SET_NO":"999","NORAD_CAT_ID":"45388","REF_FRAME":"TEME","TLE_LINE2":"2 45388  53.0541 193.3026 0001583  66.9871 293.1285 15.06394725123352","REV_AT_EPOCH":"12335","INCLINATION":"53.0541","LAUNCH_DATE":"2020-03-18","ARG_OF_PERICENTER":"66.9871","BSTAR":"-0.00002192700000","OBJECT_ID":"2020-019AE","EPHEMERIS_TYPE":"0","MEAN_MOTION_DDOT":"0.0000000000000","MEAN_MOTION_DOT":"-0.00000608","MEAN_ELEMENT_THEORY":"SGP4","FILE":"3488883","CLASSIFICATION_TYPE":"U","TLE_LINE1":"1 45388U 20019AE  22160.46512410 -.00000608  00000-0 -21927-4 0  9995","TIME_SYSTEM":"UTC","SITE":"AFETR","ECCENTRICITY":"0.00015830","EPOCH":"2022-06-09T11:09:46.722240","MEAN_ANOMALY":"293.1285","APOAPSIS":"548.326","OBJECT_NAME":"STARLINK-1280","CENTER_NAME":"EARTH","SEMIMAJOR_AXIS":"6925.365"},{"MEAN_MOTION_DOT":"-0.00001041","MEAN_MOTION_DDOT":"0.0000000000000","CLASSIFICATION_TYPE":"U","TLE_LINE1":"1 45389U 20019AF  22160.44485002 -.00001041  00000-0 -50999-4 0  9993","MEAN_ELEMENT_THEORY":"SGP4","FILE":"3488883","ECCENTRICITY":"0.00018260","SITE":"AFETR","EPOCH":"2022-06-09T10:40:35.041728","TIME_SYSTEM":"UTC","SEMIMAJOR_AXIS":"6925.363","APOAPSIS":"548.493","MEAN_ANOMALY":"305.0879","OBJECT_NAME":"STARLINK-1283","CENTER_NAME":"EARTH","RCS_SIZE":"LARGE","GP_ID":"205756150","COUNTRY_CODE":"US","MEAN_MOTION":"15.06395290","DECAY_DATE":null,"PERIAPSIS":"545.963","RA_OF_ASC_NODE":"173.4070","REF_FRAME":"TEME","NORAD_CAT_ID":"45389","TLE_LINE2":"2 45389  53.0563 173.4070 0001826  55.0281 305.0879 15.06395290123630","REV_AT_EPOCH":"12363","INCLINATION":"53.0563","OBJECT_TYPE":"PAYLOAD","PERIOD":"95.592","ELEMENT_SET_NO":"999","ARG_OF_PERICENTER":"55.0281","BSTAR":"-0.00005099900000","OBJECT_ID":"2020-019AF","EPHEMERIS_TYPE":"0","LAUNCH_DATE":"2020-03-18"},{"REV_AT_EPOCH":"12367","INCLINATION":"53.0526","TLE_LINE2":"2 45390  53.0526 172.0215 0002092  49.5993 310.5178 15.06404853123674","NORAD_CAT_ID":"45390","REF_FRAME":"TEME","ELEMENT_SET_NO":"999","PERIOD":"95.592","OBJECT_TYPE":"PAYLOAD","MEAN_MOTION":"15.06404853","GP_ID":"205777932","COUNTRY_CODE":"US","RCS_SIZE":"LARGE","RA_OF_ASC_NODE":"172.0215","PERIAPSIS":"545.750","DECAY_DATE":null,"BSTAR":"0.00009513300000","EPHEMERIS_TYPE":"0","OBJECT_ID":"2020-019AG","ARG_OF_PERICENTER":"49.5993","LAUNCH_DATE":"2020-03-18","TLE_LINE1":"1 45390U 20019AG  22160.75077749  .00001136  00000-0  95133-4 0  9996","CLASSIFICATION_TYPE":"U","MEAN_ELEMENT_THEORY":"SGP4","FILE":"3489040","MEAN_MOTION_DOT":"0.00001136","MEAN_MOTION_DDOT":"0.0000000000000","SEMIMAJOR_AXIS":"6925.334","CENTER_NAME":"EARTH","OBJECT_NAME":"STARLINK-1284","APOAPSIS":"548.647","MEAN_ANOMALY":"310.5178","EPOCH":"2022-06-09T18:01:07.175136","ECCENTRICITY":"0.00020920","SITE":"AFETR","TIME_SYSTEM":"UTC"},{"EPOCH":"2022-06-09T10:23:18.967488","ECCENTRICITY":"0.00014870","SITE":"AFETR","TIME_SYSTEM":"UTC","SEMIMAJOR_AXIS":"6925.391","CENTER_NAME":"EARTH","OBJECT_NAME":"STARLINK-1289","APOAPSIS":"548.285","MEAN_ANOMALY":"288.6969","MEAN_MOTION_DOT":"0.00000193","MEAN_MOTION_DDOT":"0.0000000000000","TLE_LINE1":"1 45391U 20019AH  22160.43285842  .00000193  00000-0  31880-4 0  9998","CLASSIFICATION_TYPE":"U","MEAN_ELEMENT_THEORY":"SGP4","FILE":"3488738","BSTAR":"0.00003188000000","EPHEMERIS_TYPE":"0","OBJECT_ID":"2020-019AH","ARG_OF_PERICENTER":"71.4181","LAUNCH_DATE":"2020-03-18","GP_ID":"205752217","COUNTRY_CODE":"US","MEAN_MOTION":"15.06386255","RCS_SIZE":"LARGE","RA_OF_ASC_NODE":"173.4447","PERIAPSIS":"546.226","DECAY_DATE":null,"INCLINATION":"53.0534","REV_AT_EPOCH":"12335","TLE_LINE2":"2 45391  53.0534 173.4447 0001487  71.4181 288.6969 15.06386255123359","REF_FRAME":"TEME","NORAD_CAT_ID":"45391","ELEMENT_SET_NO":"999","PERIOD":"95.593","OBJECT_TYPE":"PAYLOAD"}];
